#dP2022 11 12  0  0  0.00000000      96 __u+U ITR00 FIT  IAC
## 2235 518400.00000000   900.00000000 59895 0.0000000000000
+  116   C06C07C08C09C10C11C12C13C14C16C19C20C21C22C23C24C25
+        C26C27C28C29C30C32C33C34C35C36C37C38C39C40C41C42C43
+        C44C45C46E01E02E03E04E05E08E09E10E11E12E13E14E15E18
+        E19E21E24E25E26E27E30E31E33E34E36G01G02G03G04G05G06
+        G07G08G09G10G11G12G13G14G15G16G17G18G19G20G21G22G23
+        G24G25G26G27G29G30G31G32J02J03J04R01R02R03R04R05R07
+        R08R09R11R12R13R14R15R17R18R19R20R21R22R24  0  0  0
++         8  8  8  9  9  8  6  7  7  8  6  8  8  6  7  7  7
++         7  8  8  7  6  7  6  6  8  8  6  8  9  9  6  8  8
++         8  7  7  7  6  7  7  5  7  5  6  6  6  6  7  7  6
++         7  7  5  8  6  6  7  7  5  7  7  6  7  7  6  6  6
++         6  7  6  6  6  7  6  6  6  6  5  7  6  6  5  6  7
++         6  6  6  6  6  6  7  5  7  7  7  7  7  7  7  7  7
++         7  8  6  7  7  6  7  7  8  8  7  6  5  7  0  0  0
%c M  cc GPS ccc cccc cccc cccc cccc ccccc ccccc ccccc ccccc
%c cc cc ccc ccc cccc cccc cccc cccc ccccc ccccc ccccc ccccc
%f  0.0000000  0.000000000  0.00000000000  0.000000000000000
%f  0.0000000  0.000000000  0.00000000000  0.000000000000000
%i    0    0    0    0      0      0      0      0         0
%i    0    0    0    0      0      0      0      0         0
/* INFORMATION & ANALYSIS CENTER (IAC)      ULTRA-RAPID DATA
/* S/V CLOCKS ARE ALIGNED TO GNSS TIME                      
/* G:C1WC2W R:C1PC2P E:C1XC5X C:C2IC6I J:C1CC2S             
/* PCV:IGS14_2233 OL/AL:FES2004  NONE     YN ORB:CoN CLK:CoN
*  2022 11 12  3 30  0.00000000
PC06  -2073.090683  37483.899195  19438.260489      2.941986
PC07 -11431.604934  25656.746604 -31429.059834    226.506719
PC08 -18955.673629  35147.505486  13240.009626    510.426877
PC09   3458.343560  40832.251617  11379.185400   -809.549021
PC10  -2867.882297  26782.529853 -32152.871611     69.651525
PC11  -3595.649569  20728.179015 -18242.917436   -297.507056
PC12 -15024.239323   4013.719795 -23127.299772    297.831476
PC13 -10678.320508  34946.949475  20911.515346    131.044426
PC14 -11104.955894  14134.637285  21368.697078    645.490886
PC16  -5543.687676  34608.600717  23819.279659    118.052979
PC19   -127.163810 -15766.997287 -23008.934269   -915.465319
PC20  18857.051584 -10918.714335 -17418.296526    839.852670
PC21 -27885.144254   -931.819711    880.046054   -802.996268
PC22 -19937.660132 -11789.958399 -15586.350071   -798.687571
PC23   8939.248224  14947.998618 -21798.237159   -878.564860
PC24 -18744.268441  19461.950167   6897.760835   -819.202568
PC25  -5563.015518  24730.348292 -11652.870220     23.364758
PC26 -19441.185089   4885.348276  19385.587710    -34.670299
PC27  18305.926363   5250.979606  20385.006552     50.038225
PC28  16373.958641  21218.285858   7768.585181     34.970481
PC29  -5178.575629 -25269.594843  10649.420655     39.329664
PC30   9976.351279 -13874.949258  22055.341179      0.927601
PC32  27882.859402    790.473979   -761.801692   -721.702267
PC33     66.439797  15795.310783  23001.292757   -913.791199
PC34  -9191.340595  14969.576276 -21693.793670     37.355398
PC35 -16531.242649 -21561.409787  -6308.430656     84.237875
PC36   6651.598565 -24723.077018  11139.044581   -847.878969
PC37  19201.153442  -3116.418055 -20006.677740   -810.379605
PC38 -22668.812617  35034.954076   5355.047018     37.531826
PC39  -6978.221501  31645.538369  27097.167625     -0.837953
PC40 -17391.860276  18774.519710 -33557.282314     -7.917957
PC41  19478.659417  12012.691103  16015.866839   -266.947157
PC42 -19883.974304  10422.724700  16619.954141   -647.209304
PC43   4458.287733  25146.541901 -11273.850713     24.518369
PC44 -18636.216497  -4699.808736 -20229.929218    111.087676
PC45  -9103.108743 -14599.544908  21975.959915    -21.316573
PC46  18084.444566 -20626.865729  -5250.543067    -12.417291
PE01  12386.235027  12166.313755 -23970.522507   -564.332716
PE02 -12576.441340 -12045.899291  23934.015112      2.060000
PE03 -21177.062944 -19655.564067  -6462.452926   -619.109304
PE04  26130.742229   7627.606753 -11633.022713  -1156.686888
PE05  -3645.728419 -20383.344294 -21156.566895   -125.513070
PE08 -26112.664362  -7627.056813  11668.819078   -630.909047
PE09  15781.302246  -9026.466785 -23362.771459   -726.070989
PE10  15639.076934  -9189.866040  23390.849720   -490.211247
PE11  12769.295469 -20000.256920  17686.963420   1367.879869
PE12  15978.129482   2209.410486  24820.989103   -272.315353
PE13 -13015.271552  19240.613551 -18336.656156    430.607225
PE14 -24095.730713 -19040.958189  -2228.229563     54.157172
PE15 -15873.356272  -2496.696746 -24849.661680    708.005615
PE18  14105.239502  20601.531303  -6673.260514   -753.329556
PE19  19383.346288  20525.533909   8905.974416  -4019.838451
PE21  -7090.381942  19501.139615 -21103.596356   -494.135780
PE24  24573.081325 -15735.811642   5051.044704   -942.560921
PE25   7425.594050 -19553.760692  20957.496932   -592.473172
PE26  -2072.728605  29520.313076   -264.771174  -1834.998900
PE27 -23987.531986  16264.280302  -5978.239812   -437.508915
PE30 -26375.058853   2760.050632  13126.085010   -991.417405
PE31  26603.857218  -3505.367901 -12494.866250   -507.969580
PE33   9352.523814  22607.969810  16667.387960   -455.465677
PE34  -9477.753580 -22473.721336 -16784.581169    -14.171835
PE36   2566.275364 -29467.564150   1154.641385   -459.562824
PG01  13198.136071 -16263.093776  15812.034364    253.115170
PG02 -10739.074904  19802.116318 -13594.483982   -638.251255
PG03  23030.875529 -12371.021987  -4483.005701   -372.222761
PG04  14152.886439  -7415.093286 -21231.933518    -87.970436
PG05 -24856.930675   4661.192838  -8482.349083   -103.971404
PG06  -7161.105595 -20277.501308 -15468.752016    515.994455
PG07   5816.461238 -25448.966203  -2702.044076    288.453598
PG08  21167.683704   1873.428675  16116.733009    -93.400921
PG09   2912.811811 -16311.168171 -20830.649023   -269.980226
PG10   4132.510616  14418.705098  22062.788588    -11.532542
PG11 -13118.765034  -9211.744078 -21177.220657    -38.422642
PG12 -23990.675560  10581.260625  -4138.040599   -303.223703
PG13 -21348.585185 -10834.568980  11526.585115    423.005934
PG14  -1321.668003 -15713.514561  21367.653757    -84.167742
PG15 -21337.188993    763.920834  15525.981173    -13.159538
PG16  23679.200161   2042.835115 -12605.102052   -526.899369
PG17  -9140.401977 -20913.575875  13963.482720    677.116399
PG18  -5182.321950  25942.894245  -1204.833613    -18.784831
PG19 -17376.167599 -20005.656983   3062.502043    236.188065
PG20 -18571.667363  -4331.719834 -18377.476475    470.836907
PG21  15194.005256  -6971.482691  21075.944797    156.226824
PG22  18765.176217  18909.069443   1372.926096    362.900975
PG23  -7959.932280  17207.557756  18535.676569     -1.072236
PG24 -14200.757408  12567.462648  18092.530746     62.638835
PG25 -16238.383525  16538.889889 -13007.771493    391.731569
PG26  16225.760951   8273.643215 -19528.885474    235.512674
PG27  22834.596491  12066.052623   6823.333928    179.899799
PG29  -5622.620743  14531.448073 -21538.669082   -566.583951
PG30  -2166.948448 -25026.775679   8309.984549   -536.783602
PG31   8530.502317  18961.289637 -16409.373219   -199.907531
PG32  13110.490299  20325.574861  11349.661945   -293.348842
PJ02 -35307.833023  20731.917715  -5538.285315     -0.120509
PJ03 -19518.784639  26572.083447 -21657.916341     -4.488902
PJ04 -28633.442427  28523.890231  18262.799593    112.880670
PR01 -17889.861762 -11007.956566 -14482.958713     17.726082
PR02 -24786.981735  -4313.089722   4007.787365    -23.307119
PR03 -16515.216907   5118.888188  18764.055866     67.128312
PR04    715.707532  11212.537642  22922.335789    164.581286
PR05  17573.731912  11446.872853  14545.022622    102.762821
PR07  15997.072677  -5394.995110 -19112.496961     44.158696
PR08   -855.082335 -11315.818392 -22791.891313    -68.045227
PR09  17205.027093  -5773.589910 -17872.437338     87.097593
PR11   9602.692184 -19586.219837  13222.153982     21.056551
PR12  -5851.853529  -9733.678702  22866.768854     22.774226
PR13 -16483.194495   4482.838570  18928.060004    -28.786283
PR14 -18283.022174  17581.560100   2785.783587     24.116365
PR15  -9027.321175  19306.234268 -13996.836685     92.773697
PR17  -6566.888094  12301.343029 -21333.660165    577.319328
PR18   2055.365789  23564.597467  -9583.901753     51.561358
PR19   8469.847025  23319.241369   5910.559596   -210.660195
PR20  11637.777968   7531.930455  21433.957639    -81.981699
PR21   5798.176586 -13814.651557  20660.053781   -349.013631
PR22  -1342.603285 -23880.655750   8883.653680     15.734924
PR24 -12197.775746  -6383.005543 -21456.790543    125.957447
EOF
